places =[{"placename":"Madison Square Garden ","descrip":"Arena for the New York Knicks ","longitude":-73.993,"latitude":40.751},
{"placename":"Barclays Center ","descrip":"Arena for the Brooklyn Nets","longitude":-73.976,"latitude":40.683},
{"placename":"Staples Center","descrip":"Arena for the Los Angeles Clippers and Lakers ","longitude":-118.267,"latitude":34.043},
{"placename":"Fiserv Forum","descrip":"Arena for the Milwaukee Bucks ","longitude":-87.916,"latitude":43.045},
{"placename":"Oracle Arena ","descrip":"Arena for the Golden State Warriors ","longitude":-122.203,"latitude":37.75},
{"placename":"TD Garden","descrip":"Arena for the Boston Celtics ","longitude":-71.062,"latitude":42.366},
{"placename":"Quicken Loans Arena ","descrip":"Arena for the Cleveland Cavaliers","longitude":-81.688181,"latitude":41.496737},
{"placename":"AT&T Center ","descrip":"Arena for the San Antonio Spurs ","longitude":-98.437,"latitude":29.427},
{"placename":"Toyota Center ","descrip":"Arena for the Houston Rockets ","longitude":-95.362,"latitude":29.752},
{"placename":"Wells Fargo Center ","descrip":"Arena for the Philadelphia 76ers","longitude":-75.172,"latitude":39.901},
{"placename":"Scotiabank Arena ","descrip":"Arena for the Toronto Raptors ","longitude":-79.379,"latitude":43.643},
{"placename":"United Center ","descrip":"Arena for the Chicago Bulls ","longitude":-87.674,"latitude":41.881},
{"placename":"Chesapeake Energy Arena ","descrip":"Arena for the Oklahoma City Thunder ","longitude":-97.515,"latitude":35.463},
{"placename":"American Airlines Arena ","descrip":"Arena for the Miami Heat","longitude":-80.189,"latitude":25.782},
{"placename":"American Airlines Center","descrip":"Arena for the Dallas Mavericks ","longitude":-96.81,"latitude":32.79},
{"placename":"Talking Stick Resort Arena ","descrip":"Arena for the Phoenix Suns","longitude":-112.071,"latitude":33.446},
{"placename":"Vivint Smart Home Arena ","descrip":"Arena for the Utah Jazz","longitude":-111.901,"latitude":40.768},
{"placename":"Golden 1 Center ","descrip":"Arena for the Sacramento Kings ","longitude":-121.5,"latitude":38.58},
{"placename":"Moda Center ","descrip":"Arena for the Portland Trailblazers ","longitude":-122.667,"latitude":45.531},
{"placename":"Target Center ","descrip":"Arena for the Minnesota Timberwolves ","longitude":-93.276,"latitude":44.979},
{"placename":"State Farm Arena ","descrip":"Arena for the Atlanta Hawks ","longitude":-84.39,"latitude":33.76},
{"placename":"Little Caesars Arena ","descrip":"Arena for the Detroit Pistons ","longitude":-83.055,"latitude":42.341},
{"placename":"Bankers Life Fieldhouse ","descrip":"Arena for the Indiana Pacers","longitude":-86.156,"latitude":39.765},
{"placename":"Pepsi Center ","descrip":"Arena for the Denver Nuggets ","longitude":-105.008,"latitude":39.749},
{"placename":"Capital One Arena ","descrip":"Arena for the Washington Wizards ","longitude":-77.021,"latitude":38.898},
{"placename":"Amway Center ","descrip":"Arena for the Orlando Magic ","longitude":-81.384,"latitude":28.539},
{"placename":"Smoothie King Center ","descrip":"Arena for the New Orleans Pelicans ","longitude":-90.082,"latitude":29.949},
{"placename":"Spectrum Center ","descrip":"Arena for the Charlotte Hornets ","longitude":-80.839,"latitude":35.225},
{"placename":"FedEx Forum","descrip":"Arena for the Memphis Grizzlies ","longitude":-90.051,"latitude":35.138}]
